[{"OBJECT_NAME":"LEMUR-2-MARACHE-FRAN","OBJECT_ID":"2025-052BE","EPOCH":"2026-03-09T17:00:45.199872","MEAN_MOTION":14.98898773,"ECCENTRICITY":0.00023242,"INCLINATION":97.6985,"RA_OF_ASC_NODE":323.5335,"ARG_OF_PERICENTER":45.7689,"MEAN_ANOMALY":314.3725,"EPHEMERIS_TYPE":0,"CLASSIFICATION_TYPE":"U","NORAD_CAT_ID":63262,"ELEMENT_SET_NO":999,"REV_AT_EPOCH":5385,"BSTAR":0.0006846049,"MEAN_MOTION_DOT":8.22e-5,"MEAN_MOTION_DDOT":0},{"OBJECT_NAME":"STARLINK-34629","OBJECT_ID":"2025-150A","EPOCH":"2026-03-09T13:59:24.085824","MEAN_MOTION":14.98326529,"ECCENTRICITY":0.0003243,"INCLINATION":70.0042,"RA_OF_ASC_NODE":134.6192,"ARG_OF_PERICENTER":293.7349,"MEAN_ANOMALY":66.3469,"EPHEMERIS_TYPE":0,"CLASSIFICATION_TYPE":"U","NORAD_CAT_ID":64790,"ELEMENT_SET_NO":999,"REV_AT_EPOCH":3650,"BSTAR":0.00012593,"MEAN_MOTION_DOT":1.41e-5,"MEAN_MOTION_DDOT":0}]
